{
  "type": "FeatureCollection",
  "features": [
    {
      "type": "Feature",
      "properties": {
        "norad_id": 66439,
        "name": "STARLINK-35327",
        "group": "last-30-days",
        "lat": -42.73524813001174,
        "lon": -12.198768592783921,
        "alt_km": 441.5467580901259,
        "timestamp": "2025-12-08T19:31:47.635578+00:00",
        "meta_object_name": "STARLINK-35327",
        "meta_object_id": "2025-259T",
        "meta_epoch": "2025-12-08T06:00:02.999808",
        "meta_mean_motion": 15.44819251,
        "meta_eccentricity": 0.00012849,
        "meta_inclination": 43.0004,
        "meta_ra_of_asc_node": 73.5735,
        "meta_arg_of_pericenter": 269.8034,
        "meta_mean_anomaly": 109.5163,
        "meta_ephemeris_type": 0,
        "meta_classification_type": "U",
        "meta_norad_cat_id": 66439,
        "meta_element_set_no": 999,
        "meta_rev_at_epoch": 555,
        "meta_bstar": -0.047727363,
        "meta_mean_motion_dot": -0.02037562,
        "meta_mean_motion_ddot": 0,
        "tle_line1": "1 66439U 25259T   25342.25003472 -.02037562  00000+0 -47727-1 0  9994",
        "tle_line2": "2 66439  43.0004  73.5735 0001284 269.8034 109.5163 15.44819251  5558"
      },
      "geometry": {
        "type": "Point",
        "coordinates": [
          -12.198768592783921,
          -42.73524813001174
        ]
      }
    },
    {
      "type": "Feature",
      "properties": {
        "norad_id": 66440,
        "name": "STARLINK-35405",
        "group": "last-30-days",
        "lat": -31.67271053092396,
        "lon": 28.769513394521766,
        "alt_km": 413.094697982644,
        "timestamp": "2025-12-08T19:31:47.635587+00:00",
        "meta_object_name": "STARLINK-35405",
        "meta_object_id": "2025-259U",
        "meta_epoch": "2025-12-08T07:22:31.709280",
        "meta_mean_motion": 15.5025432,
        "meta_eccentricity": 0.00089559,
        "meta_inclination": 43.0019,
        "meta_ra_of_asc_node": 73.1858,
        "meta_arg_of_pericenter": 293.5691,
        "meta_mean_anomaly": 66.4228,
        "meta_ephemeris_type": 0,
        "meta_classification_type": "U",
        "meta_norad_cat_id": 66440,
        "meta_element_set_no": 999,
        "meta_rev_at_epoch": 548,
        "meta_bstar": -0.0014583339,
        "meta_mean_motion_dot": -0.00084166,
        "meta_mean_motion_ddot": 0,
        "tle_line1": "1 66440U 25259U   25342.30731145 -.00084166  00000+0 -14583-2 0  9992",
        "tle_line2": "2 66440  43.0019  73.1858 0008955 293.5691  66.4228 15.50254320  5485"
      },
      "geometry": {
        "type": "Point",
        "coordinates": [
          28.769513394521766,
          -31.67271053092396
        ]
      }
    },
    {
      "type": "Feature",
      "properties": {
        "norad_id": 66441,
        "name": "STARLINK-35426",
        "group": "last-30-days",
        "lat": -30.083554523224432,
        "lon": 31.780365071320855,
        "alt_km": 416.7426142922586,
        "timestamp": "2025-12-08T19:31:47.635597+00:00",
        "meta_object_name": "STARLINK-35426",
        "meta_object_id": "2025-259V",
        "meta_epoch": "2025-12-08T07:21:58.514400",
        "meta_mean_motion": 15.50605801,
        "meta_eccentricity": 0.00012739,
        "meta_inclination": 43.0003,
        "meta_ra_of_asc_node": 73.1832,
        "meta_arg_of_pericenter": 261.9613,
        "meta_mean_anomaly": 98.1103,
        "meta_ephemeris_type": 0,
        "meta_classification_type": "U",
        "meta_norad_cat_id": 66441,
        "meta_element_set_no": 999,
        "meta_rev_at_epoch": 548,
        "meta_bstar": 0.0019443289,
        "meta_mean_motion_dot": 0.00115531,
        "meta_mean_motion_ddot": 0,
        "tle_line1": "1 66441U 25259V   25342.30692725  .00115531  00000+0  19443-2 0  9992",
        "tle_line2": "2 66441  43.0003  73.1832 0001273 261.9613  98.1103 15.50605801  5488"
      },
      "geometry": {
        "type": "Point",
        "coordinates": [
          31.780365071320855,
          -30.083554523224432
        ]
      }
    },
    {
      "type": "Feature",
      "properties": {
        "norad_id": 66442,
        "name": "STARLINK-34724",
        "group": "last-30-days",
        "lat": -29.088497121455323,
        "lon": 33.557790253743,
        "alt_km": 416.69075529064503,
        "timestamp": "2025-12-08T19:31:47.635606+00:00",
        "meta_object_name": "STARLINK-34724",
        "meta_object_id": "2025-259W",
        "meta_epoch": "2025-12-08T07:21:27.692928",
        "meta_mean_motion": 15.50605279,
        "meta_eccentricity": 0.00015165,
        "meta_inclination": 43.0006,
        "meta_ra_of_asc_node": 73.1808,
        "meta_arg_of_pericenter": 303.6738,
        "meta_mean_anomaly": 56.3978,
        "meta_ephemeris_type": 0,
        "meta_classification_type": "U",
        "meta_norad_cat_id": 66442,
        "meta_element_set_no": 999,
        "meta_rev_at_epoch": 548,
        "meta_bstar": -0.00064654219,
        "meta_mean_motion_dot": -0.00038122,
        "meta_mean_motion_ddot": 0,
        "tle_line1": "1 66442U 25259W   25342.30657052 -.00038122  00000+0 -64654-3 0  9994",
        "tle_line2": "2 66442  43.0006  73.1808 0001516 303.6738  56.3978 15.50605279  5482"
      },
      "geometry": {
        "type": "Point",
        "coordinates": [
          33.557790253743,
          -29.088497121455323
        ]
      }
    },
    {
      "type": "Feature",
      "properties": {
        "norad_id": 66443,
        "name": "STARLINK-35219",
        "group": "last-30-days",
        "lat": -25.664269946898106,
        "lon": 39.15373497067287,
        "alt_km": 414.32189796820967,
        "timestamp": "2025-12-08T19:31:47.635616+00:00",
        "meta_object_name": "STARLINK-35219",
        "meta_object_id": "2025-259X",
        "meta_epoch": "2025-12-06T13:36:31.548384",
        "meta_mean_motion": 15.50724046,
        "meta_eccentricity": 0.00015671,
        "meta_inclination": 43.0012,
        "meta_ra_of_asc_node": 83.3472,
        "meta_arg_of_pericenter": 246.0575,
        "meta_mean_anomaly": 114.0122,
        "meta_ephemeris_type": 0,
        "meta_classification_type": "U",
        "meta_norad_cat_id": 66443,
        "meta_element_set_no": 999,
        "meta_rev_at_epoch": 510,
        "meta_bstar": 0.0027615281,
        "meta_mean_motion_dot": 0.00166001,
        "meta_mean_motion_ddot": 0,
        "tle_line1": "1 66443U 25259X   25340.56703181  .00166001  00000+0  27615-2 0  9997",
        "tle_line2": "2 66443  43.0012  83.3472 0001567 246.0575 114.0122 15.50724046  5101"
      },
      "geometry": {
        "type": "Point",
        "coordinates": [
          39.15373497067287,
          -25.664269946898106
        ]
      }
    },
    {
      "type": "Feature",
      "properties": {
        "norad_id": 66444,
        "name": "STARLINK-35360",
        "group": "last-30-days",
        "lat": -24.77684739625326,
        "lon": 40.50318475152992,
        "alt_km": 416.992377748149,
        "timestamp": "2025-12-08T19:31:47.635626+00:00",
        "meta_object_name": "STARLINK-35360",
        "meta_object_id": "2025-259Y",
        "meta_epoch": "2025-12-08T06:00:02.999808",
        "meta_mean_motion": 15.5057439,
        "meta_eccentricity": 0.00015991,
        "meta_inclination": 43.0011,
        "meta_ra_of_asc_node": 73.4915,
        "meta_arg_of_pericenter": 255.2577,
        "meta_mean_anomaly": 156.4543,
        "meta_ephemeris_type": 0,
        "meta_classification_type": "U",
        "meta_norad_cat_id": 66444,
        "meta_element_set_no": 999,
        "meta_rev_at_epoch": 555,
        "meta_bstar": -0.00049753214,
        "meta_mean_motion_dot": -0.00029415,
        "meta_mean_motion_ddot": 0,
        "tle_line1": "1 66444U 25259Y   25342.25003472 -.00029415  00000+0 -49753-3 0  9999",
        "tle_line2": "2 66444  43.0011  73.4915 0001599 255.2577 156.4543 15.50574390  5553"
      },
      "geometry": {
        "type": "Point",
        "coordinates": [
          40.50318475152992,
          -24.77684739625326
        ]
      }
    },
    {
      "type": "Feature",
      "properties": {
        "norad_id": 66445,
        "name": "STARLINK-34698",
        "group": "last-30-days",
        "lat": -27.00632525697894,
        "lon": 37.04741907737417,
        "alt_km": 417.1218968961484,
        "timestamp": "2025-12-08T19:31:47.635635+00:00",
        "meta_object_name": "STARLINK-34698",
        "meta_object_id": "2025-259Z",
        "meta_epoch": "2025-12-08T06:00:02.999808",
        "meta_mean_motion": 15.505835,
        "meta_eccentricity": 0.00016423,
        "meta_inclination": 43.001,
        "meta_ra_of_asc_node": 73.5013,
        "meta_arg_of_pericenter": 254.9871,
        "meta_mean_anomaly": 152.8937,
        "meta_ephemeris_type": 0,
        "meta_classification_type": "U",
        "meta_norad_cat_id": 66445,
        "meta_element_set_no": 999,
        "meta_rev_at_epoch": 545,
        "meta_bstar": -0.00084552345,
        "meta_mean_motion_dot": -0.00049639,
        "meta_mean_motion_ddot": 0,
        "tle_line1": "1 66445U 25259Z   25342.25003472 -.00049639  00000+0 -84552-3 0  9996",
        "tle_line2": "2 66445  43.0010  73.5013 0001642 254.9871 152.8937 15.50583500  5454"
      },
      "geometry": {
        "type": "Point",
        "coordinates": [
          37.04741907737417,
          -27.00632525697894
        ]
      }
    }
  ]
}